{"type":"FeatureCollection","name":"narino_municipios_oficial","note":"Datos OFICIALES (GobernaciondeNarino/suite-oni · DANE/IGAC). 64 municipios (centroides MPIO_CNMBR/LATITUD/LONGITUD) + contorno departamental.","crs":{"type":"name","properties":{"name":"urn:ogc:def:crs:OGC:1.3:CRS84"}},"features":[{"type":"Feature","properties":{"kind":"boundary","name":"Nariño"},"geometry":{"type":"Polygon","coordinates":[[[-77.2375,1.6581],[-77.2453,1.6581],[-77.2375,1.6581]]]}},{"type":"Feature","properties":{"kind":"municipio","name":"Sandoná","capital":false},"geometry":{"type":"Point","coordinates":[-77.4567,1.2881]}},{"type":"Feature","properties":{"kind":"municipio","name":"San Bernardo","capital":false},"geometry":{"type":"Point","coordinates":[-77.0207,1.5298]}},{"type":"Feature","properties":{"kind":"municipio","name":"San Lorenzo","capital":false},"geometry":{"type":"Point","coordinates":[-77.2187,1.5421]}},{"type":"Feature","properties":{"kind":"municipio","name":"Potosí","capital":false},"geometry":{"type":"Point","coordinates":[-77.4248,0.7227]}},{"type":"Feature","properties":{"kind":"municipio","name":"San Pablo","capital":false},"geometry":{"type":"Point","coordinates":[-76.9753,1.6816]}},{"type":"Feature","properties":{"kind":"municipio","name":"Providencia","capital":false},"geometry":{"type":"Point","coordinates":[-77.5984,1.2329]}},{"type":"Feature","properties":{"kind":"municipio","name":"San Pedro de Cartago","capital":false},"geometry":{"type":"Point","coordinates":[-77.1014,1.5368]}},{"type":"Feature","properties":{"kind":"municipio","name":"Puerres","capital":false},"geometry":{"type":"Point","coordinates":[-77.3222,0.8265]}},{"type":"Feature","properties":{"kind":"municipio","name":"Santacruz","capital":false},"geometry":{"type":"Point","coordinates":[-77.7446,1.2852]}},{"type":"Feature","properties":{"kind":"municipio","name":"Pupiales","capital":false},"geometry":{"type":"Point","coordinates":[-77.6334,0.9168]}},{"type":"Feature","properties":{"kind":"municipio","name":"Samaniego","capital":false},"geometry":{"type":"Point","coordinates":[-77.6918,1.4306]}},{"type":"Feature","properties":{"kind":"municipio","name":"Consacá","capital":false},"geometry":{"type":"Point","coordinates":[-77.4406,1.2091]}},{"type":"Feature","properties":{"kind":"municipio","name":"Contadero","capital":false},"geometry":{"type":"Point","coordinates":[-77.5281,0.9327]}},{"type":"Feature","properties":{"kind":"municipio","name":"Córdoba","capital":false},"geometry":{"type":"Point","coordinates":[-77.3603,0.7708]}},{"type":"Feature","properties":{"kind":"municipio","name":"Pasto","capital":true},"geometry":{"type":"Point","coordinates":[-77.2061,1.0836]}},{"type":"Feature","properties":{"kind":"municipio","name":"Albán","capital":false},"geometry":{"type":"Point","coordinates":[-77.0688,1.4699]}},{"type":"Feature","properties":{"kind":"municipio","name":"Aldana","capital":false},"geometry":{"type":"Point","coordinates":[-77.6954,0.9134]}},{"type":"Feature","properties":{"kind":"municipio","name":"Cuaspud Carlosama","capital":false},"geometry":{"type":"Point","coordinates":[-77.7359,0.8754]}},{"type":"Feature","properties":{"kind":"municipio","name":"Ancuya","capital":false},"geometry":{"type":"Point","coordinates":[-77.5312,1.2453]}},{"type":"Feature","properties":{"kind":"municipio","name":"Arboleda","capital":false},"geometry":{"type":"Point","coordinates":[-77.1299,1.4801]}},{"type":"Feature","properties":{"kind":"municipio","name":"Belén","capital":false},"geometry":{"type":"Point","coordinates":[-77.0429,1.5908]}},{"type":"Feature","properties":{"kind":"municipio","name":"Buesaco","capital":false},"geometry":{"type":"Point","coordinates":[-77.1164,1.3152]}},{"type":"Feature","properties":{"kind":"municipio","name":"Colón","capital":false},"geometry":{"type":"Point","coordinates":[-77.0473,1.6363]}},{"type":"Feature","properties":{"kind":"municipio","name":"Nariño","capital":false},"geometry":{"type":"Point","coordinates":[-77.3539,1.2809]}},{"type":"Feature","properties":{"kind":"municipio","name":"Ospina","capital":false},"geometry":{"type":"Point","coordinates":[-77.5523,1.0298]}},{"type":"Feature","properties":{"kind":"municipio","name":"Sapuyes","capital":false},"geometry":{"type":"Point","coordinates":[-77.6804,1.0362]}},{"type":"Feature","properties":{"kind":"municipio","name":"Taminango","capital":false},"geometry":{"type":"Point","coordinates":[-77.3253,1.5917]}},{"type":"Feature","properties":{"kind":"municipio","name":"Tangua","capital":false},"geometry":{"type":"Point","coordinates":[-77.3506,1.0641]}},{"type":"Feature","properties":{"kind":"municipio","name":"Chachagüí","capital":false},"geometry":{"type":"Point","coordinates":[-77.2697,1.3865]}},{"type":"Feature","properties":{"kind":"municipio","name":"El Peñol","capital":false},"geometry":{"type":"Point","coordinates":[-77.4305,1.5123]}},{"type":"Feature","properties":{"kind":"municipio","name":"El Tablón de Gómez","capital":false},"geometry":{"type":"Point","coordinates":[-76.9853,1.4094]}},{"type":"Feature","properties":{"kind":"municipio","name":"Túquerres","capital":false},"geometry":{"type":"Point","coordinates":[-77.6307,1.1344]}},{"type":"Feature","properties":{"kind":"municipio","name":"Linares","capital":false},"geometry":{"type":"Point","coordinates":[-77.5209,1.3952]}},{"type":"Feature","properties":{"kind":"municipio","name":"Yacuanquer","capital":false},"geometry":{"type":"Point","coordinates":[-77.4247,1.1255]}},{"type":"Feature","properties":{"kind":"municipio","name":"Mallama","capital":false},"geometry":{"type":"Point","coordinates":[-77.8466,1.1559]}},{"type":"Feature","properties":{"kind":"municipio","name":"La Cruz","capital":false},"geometry":{"type":"Point","coordinates":[-76.9234,1.5842]}},{"type":"Feature","properties":{"kind":"municipio","name":"La Florida","capital":false},"geometry":{"type":"Point","coordinates":[-77.3882,1.3339]}},{"type":"Feature","properties":{"kind":"municipio","name":"El Tambo","capital":false},"geometry":{"type":"Point","coordinates":[-77.3831,1.4303]}},{"type":"Feature","properties":{"kind":"municipio","name":"Funes","capital":false},"geometry":{"type":"Point","coordinates":[-77.3284,0.9142]}},{"type":"Feature","properties":{"kind":"municipio","name":"Guachucal","capital":false},"geometry":{"type":"Point","coordinates":[-77.7376,0.975]}},{"type":"Feature","properties":{"kind":"municipio","name":"La Unión","capital":false},"geometry":{"type":"Point","coordinates":[-77.1428,1.6197]}},{"type":"Feature","properties":{"kind":"municipio","name":"Guaitarilla","capital":false},"geometry":{"type":"Point","coordinates":[-77.5301,1.1514]}},{"type":"Feature","properties":{"kind":"municipio","name":"Leiva","capital":false},"geometry":{"type":"Point","coordinates":[-77.3119,1.939]}},{"type":"Feature","properties":{"kind":"municipio","name":"Gualmatán","capital":false},"geometry":{"type":"Point","coordinates":[-77.5826,0.9286]}},{"type":"Feature","properties":{"kind":"municipio","name":"Iles","capital":false},"geometry":{"type":"Point","coordinates":[-77.5187,0.9805]}},{"type":"Feature","properties":{"kind":"municipio","name":"Imués","capital":false},"geometry":{"type":"Point","coordinates":[-77.5015,1.0729]}},{"type":"Feature","properties":{"kind":"municipio","name":"Ipiales","capital":false},"geometry":{"type":"Point","coordinates":[-77.3704,0.5586]}},{"type":"Feature","properties":{"kind":"municipio","name":"Cumbal","capital":false},"geometry":{"type":"Point","coordinates":[-77.9596,0.9442]}},{"type":"Feature","properties":{"kind":"municipio","name":"Cumbitara","capital":false},"geometry":{"type":"Point","coordinates":[-77.5928,1.7256]}},{"type":"Feature","properties":{"kind":"municipio","name":"El Rosario","capital":false},"geometry":{"type":"Point","coordinates":[-77.4383,1.8451]}},{"type":"Feature","properties":{"kind":"municipio","name":"La Llanada","capital":false},"geometry":{"type":"Point","coordinates":[-77.7032,1.554]}},{"type":"Feature","properties":{"kind":"municipio","name":"Los Andes","capital":false},"geometry":{"type":"Point","coordinates":[-77.7105,1.6726]}},{"type":"Feature","properties":{"kind":"municipio","name":"Policarpa","capital":false},"geometry":{"type":"Point","coordinates":[-77.4813,1.7354]}},{"type":"Feature","properties":{"kind":"municipio","name":"Ricaurte","capital":false},"geometry":{"type":"Point","coordinates":[-78.0477,1.2028]}},{"type":"Feature","properties":{"kind":"municipio","name":"Barbacoas","capital":false},"geometry":{"type":"Point","coordinates":[-78.1562,1.4456]}},{"type":"Feature","properties":{"kind":"municipio","name":"El Charco","capital":false},"geometry":{"type":"Point","coordinates":[-77.7957,2.1832]}},{"type":"Feature","properties":{"kind":"municipio","name":"La Tola","capital":false},"geometry":{"type":"Point","coordinates":[-78.2099,2.4193]}},{"type":"Feature","properties":{"kind":"municipio","name":"Magüí","capital":false},"geometry":{"type":"Point","coordinates":[-78.0447,1.9069]}},{"type":"Feature","properties":{"kind":"municipio","name":"Mosquera","capital":false},"geometry":{"type":"Point","coordinates":[-78.4388,2.4425]}},{"type":"Feature","properties":{"kind":"municipio","name":"Olaya Herrera","capital":false},"geometry":{"type":"Point","coordinates":[-78.2947,2.2899]}},{"type":"Feature","properties":{"kind":"municipio","name":"Francisco Pizarro","capital":false},"geometry":{"type":"Point","coordinates":[-78.5919,2.0885]}},{"type":"Feature","properties":{"kind":"municipio","name":"Roberto Payán","capital":false},"geometry":{"type":"Point","coordinates":[-78.3811,1.8976]}},{"type":"Feature","properties":{"kind":"municipio","name":"Santa Bárbara","capital":false},"geometry":{"type":"Point","coordinates":[-77.8744,2.3022]}},{"type":"Feature","properties":{"kind":"municipio","name":"San Andrés de Tumaco","capital":false},"geometry":{"type":"Point","coordinates":[-78.6139,1.6361]}}]}